NORAD_CAT_ID,OBJECT_NAME,OBJECT_TYPE,EPOCH,MEAN_MOTION,ECCENTRICITY,INCLINATION,RA_OF_ASC_NODE,ARG_OF_PERICENTER,MEAN_ANOMALY,BSTAR,MEAN_MOTION_DOT,MEAN_MOTION_DDOT,TLE_LINE0,TLE_LINE1,TLE_LINE2,SEMIMAJOR_AXIS,PERIOD,APOGEE,PERIGEE,DECAYED
51783.0,STARLINK-3628,PAYLOAD,2022-09-01 22:00:00,15.08879223,0.0001438,53.2185,346.69,50.7013,289.1209,-0.0039882,-0.0006327,0.0,0 STARLINK-3628,1 51783U 22017R   22244.91667824 -.00063270  00000-0 -39882-2 0  9995,2 51783  53.2185 346.6900 0001438  50.7013 289.1209 15.08879223  1300,6917.761,95.435,540.62,538.631,0.0
51783.0,STARLINK-3628,PAYLOAD,2022-09-02 14:00:01,15.08832057,0.0001551999999999,53.2184,343.6980000000001,54.1679,308.8573,-0.00021312,-3.677e-05,0.0,0 STARLINK-3628,1 51783U 22017R   22245.58334491 -.00003677  00000-0 -21312-3 0  9995,2 51783  53.2184 343.6980 0001552  54.1679 308.8573 15.08832057  1304,6917.905,95.438,540.8430000000002,538.696,0.0
51783.0,STARLINK-3628,PAYLOAD,2022-09-02 16:00:00,15.08816769,0.0001547,53.2185,343.3242,52.7104,43.2155,0.0019767,0.00031291,0.0,0 STARLINK-3628,1 51783U 22017R   22245.66667824  .00031291  00000-0  19767-2 0  9994,2 51783  53.2185 343.3242 0001547  52.7104  43.2155 15.08816769 30214,6917.951,95.439,540.887,538.746,0.0
51783.0,STARLINK-3628,PAYLOAD,2022-09-02 22:00:01,15.08852841,0.0001489,53.218,342.2008,53.6004,321.0677,-0.0020819,-0.0003328,0.0,0 STARLINK-3628,1 51783U 22017R   22245.91668981 -.00033280  00000-0 -20819-2 0  9999,2 51783  53.2180 342.2008 0001489  53.6004 321.0677 15.08852841  1306,6917.840999999999,95.437,540.736,538.6759999999998,0.0
51783.0,STARLINK-3628,PAYLOAD,2022-09-03 14:00:01,15.08850145,0.0001597,53.2179,339.209,53.9793,343.8319,-0.00021406,-3.694e-05,0.0,0 STARLINK-3628,1 51783U 22017R   22246.58334491 -.00003694  00000-0 -21406-3 0  9999,2 51783  53.2179 339.2090 0001597  53.9793 343.8319 15.08850145  1309,6917.849,95.437,540.819,538.61,0.0
51783.0,STARLINK-3628,PAYLOAD,2022-09-03 16:00:00,15.08842751,0.0001601,53.218,338.8351,52.2363,78.4825,0.0013289999999999,0.00020928,0.0,0 STARLINK-3628,1 51783U 22017R   22246.66667824  .00020928  00000-0  13290-2 0  9995,2 51783  53.2180 338.8351 0001601  52.2363  78.4825 15.08842751 30362,6917.871999999999,95.437,540.845,538.629,0.0
51783.0,STARLINK-3628,PAYLOAD,2022-09-03 22:00:00,15.08870475,0.0001584,53.2177,337.7116,54.8791,354.5425,-0.0036065,-0.00057277,0.0,0 STARLINK-3628,1 51783U 22017R   22246.91667824 -.00057277  00000-0 -36065-2 0  9997,2 51783  53.2177 337.7116 0001584  54.8791 354.5425 15.08870475  1308,6917.7869999999975,95.436,540.748,538.556,0.0
51783.0,STARLINK-3628,PAYLOAD,2022-09-04 08:00:01,15.08857469,0.0001585999999999,53.218,335.8407,61.0589,92.8665,-0.00036003,-6.016e-05,0.0,0 STARLINK-3628,1 51783U 22017R   22247.33334491 -.00006016  00000-0 -36003-3 0  9993,2 51783  53.2180 335.8407 0001586  61.0589  92.8665 15.08857469 30466,6917.8269999999975,95.436,540.789,538.595,0.0
51783.0,STARLINK-3628,PAYLOAD,2022-09-04 14:00:01,15.08863906,0.0001703,53.2178,334.7196,54.0842,18.6185,-0.00061491,-0.00010068,0.0,0 STARLINK-3628,1 51783U 22017R   22247.58335648 -.00010068  00000-0 -61491-3 0  9996,2 51783  53.2178 334.7196 0001703  54.0842  18.6185 15.08863906  1308,6917.807,95.436,540.85,538.494,0.0
51783.0,STARLINK-3628,PAYLOAD,2022-09-04 20:00:01,15.08883996,0.0001644,53.2176,333.5968,50.9652,300.3853,-0.0045457,-0.00071997,0.0,0 STARLINK-3628,1 51783U 22017R   22247.83334491 -.00071997  00000-0 -45457-2 0  9990,2 51783  53.2176 333.5968 0001644  50.9652 300.3853 15.08883996  1302,6917.746,95.435,540.748,538.474,0.0
51783.0,STARLINK-3628,PAYLOAD,2022-09-05 14:00:01,15.08845414,0.0001769,53.2182,330.2305,52.7955,54.6654,-0.00037963,-6.326e-05,0.0,0 STARLINK-3628,1 51783U 22017R   22248.58334491 -.00006326  00000-0 -37963-3 0  9991,2 51783  53.2182 330.2305 0001769  52.7955  54.6654 15.08845414 30653,6917.864000000001,95.437,540.953,538.505,0.0
51783.0,STARLINK-3628,PAYLOAD,2022-09-05 22:00:00,15.08858804,0.000169,53.2183,328.733,54.1977,64.8594,-0.0062052,-0.00097757,0.0,0 STARLINK-3628,1 51783U 22017R   22248.91667824 -.00097757  00000-0 -62052-2 0  9991,2 51783  53.2183 328.7330 0001690  54.1977  64.8594 15.08858804  1300,6917.823,95.436,540.857,538.519,0.0
51783.0,STARLINK-3628,PAYLOAD,2022-09-06 06:00:00,15.08793622,0.0001736,53.2186,327.236,60.7243,69.9067,0.001032,0.00016154,0.0,0 STARLINK-3628,1 51783U 22017R   22249.25001157  .00016154  00000-0  10320-2 0  9991,2 51783  53.2186 327.2360 0001736  60.7243  69.9067 15.08793622 30758,6918.022,95.44,541.0880000000002,538.686,0.0
51783.0,STARLINK-3628,PAYLOAD,2022-09-06 14:00:01,15.08787557,0.0001884,53.2187,325.7417,53.5826,88.5988,0.0019839,0.00031382,0.0,0 STARLINK-3628,1 51783U 22017R   22249.58334491  .00031382  00000-0  19839-2 0  9991,2 51783  53.2187 325.7417 0001884  53.5826  88.5988 15.08787557  1304,6918.041,95.441,541.2090000000002,538.602,0.0
51783.0,STARLINK-3628,PAYLOAD,2022-09-06 22:00:00,15.08821052,0.0001776999999999,53.2187,324.2443,55.6739,98.0514,-0.00093063,-0.00015061,0.0,0 STARLINK-3628,1 51783U 22017R   22249.91667824 -.00015061  00000-0 -93063-3 0  9997,2 51783  53.2187 324.2443 0001777  55.6739  98.0514 15.08821052  1304,6917.938,95.439,541.033,538.5740000000002,0.0
51783.0,STARLINK-3628,PAYLOAD,2022-09-07 14:00:01,15.08812098,0.0001913,53.2189,321.2531,52.7564,124.1168,0.0023436999999999,0.00037181,0.0,0 STARLINK-3628,1 51783U 22017R   22250.58334491  .00037181  00000-0  23437-2 0  9995,2 51783  53.2189 321.2531 0001913  52.7564 124.1168 15.08812098  1303,6917.965999999999,95.439,541.154,538.507,0.0
51783.0,STARLINK-3628,PAYLOAD,2022-09-07 22:00:00,15.08842923,0.0001774999999999,53.2188,319.7555,56.0322,132.4163,-0.00079408,-0.00012905,0.0,0 STARLINK-3628,1 51783U 22017R   22250.91667824 -.00012905  00000-0 -79408-3 0  9990,2 51783  53.2188 319.7555 0001775  56.0322 132.4163 15.08842923  1302,6917.871,95.437,540.964,538.509,0.0
51783.0,STARLINK-3628,PAYLOAD,2022-09-08 14:00:01,15.08838225,0.0001894,53.2187,316.7645,52.3994,159.2614,0.0022424,0.00035579,0.0,0 STARLINK-3628,1 51783U 22017R   22251.58334491  .00035579  00000-0  22424-2 0  9990,2 51783  53.2187 316.7645 0001894  52.3994 159.2614 15.08838225  1302,6917.886,95.438,541.061,538.441,0.0
51783.0,STARLINK-3628,PAYLOAD,2022-09-08 22:00:00,15.08862937,0.0001676999999999,53.2185,315.2666,55.0029,168.2727,-0.0022386,-0.00035761,0.0,0 STARLINK-3628,1 51783U 22017R   22251.91667824 -.00035761  00000-0 -22386-2 0  9998,2 51783  53.2185 315.2666 0001677  55.0029 168.2727 15.08862937  1307,6917.81,95.436,540.835,538.515,0.0
51783.0,STARLINK-3628,PAYLOAD,2022-09-09 00:00:02,15.08825666,0.0001631999999999,53.2184,314.8923,56.6363,259.6169,0.0021905,0.00034732,0.0,0 STARLINK-3628,1 51783U 22017R   22252.00002315  .00034732  00000-0  21905-2 0  9998,2 51783  53.2184 314.8923 0001632  56.6363 259.6169 15.08825666 31177,6917.924,95.438,540.918,538.66,0.0
51783.0,STARLINK-3628,PAYLOAD,2022-09-09 14:00:01,15.08805753,0.0001718,53.2181,312.2757,48.4802,198.0085,0.0029517,0.00046958,0.0,0 STARLINK-3628,1 51783U 22017R   22252.58334491  .00046958  00000-0  29517-2 0  9994,2 51783  53.2181 312.2757 0001718  48.4802 198.0085 15.08805753  1303,6917.985,95.44,541.039,538.6619999999998,0.0
51783.0,STARLINK-3628,PAYLOAD,2022-09-09 22:00:00,15.08833189,0.0001556,53.2178,310.7772,52.9778,205.0879,0.00024145,3.556e-05,0.0,0 STARLINK-3628,1 51783U 22017R   22252.91667824  .00003556  00000-0  24145-3 0  9990,2 51783  53.2178 310.7772 0001556  52.9778 205.0879 15.08833189  1305,6917.901,95.438,540.8430000000002,538.69,0.0
51783.0,STARLINK-3628,PAYLOAD,2022-09-10 14:00:01,15.08838667,0.0001675,53.2172,307.7869,47.7078,233.5561,-5.7005e-05,-1.195e-05,0.0,0 STARLINK-3628,1 51783U 22017R   22253.58334491 -.00001195  00000-0 -57005-4 0  9996,2 51783  53.2172 307.7869 0001675  47.7078 233.5561 15.08838667 31414,6917.884,95.438,540.908,538.591,0.0
51783.0,STARLINK-3628,PAYLOAD,2022-09-10 22:00:00,15.08822059,0.0001486999999999,53.2169,306.2888,50.6602,242.2045,0.00081354,0.00012677,0.0,0 STARLINK-3628,1 51783U 22017R   22253.91667824  .00012677  00000-0  81354-3 0  9990,2 51783  53.2169 306.2888 0001487  50.6602 242.2045 15.08822059  1309,6917.935,95.439,540.8290000000002,538.7719999999998,0.0
51783.0,STARLINK-3628,PAYLOAD,2022-09-11 14:00:01,15.088331599999998,0.0001709,53.2164,303.2976,46.9468,269.0996,0.0012335999999999,0.00019396,0.0,0 STARLINK-3628,1 51783U 22017R   22254.58334491  .00019396  00000-0  12336-2 0  9993,2 51783  53.2164 303.2976 0001709  46.9468 269.0996 15.08833160  1301,6917.901,95.438,540.9490000000002,538.5840000000002,0.0
51783.0,STARLINK-3628,PAYLOAD,2022-09-11 22:00:00,15.08819665,0.0001635,53.2164,301.7994,53.2086,274.442,0.0009732,0.00015226,0.0,0 STARLINK-3628,1 51783U 22017R   22254.91667824  .00015226  00000-0  97320-3 0  9994,2 51783  53.2164 301.7994 0001635  53.2086 274.4420 15.08819665  1305,6917.943,95.439,540.939,538.6759999999998,0.0
51783.0,STARLINK-3628,PAYLOAD,2022-09-12 14:00:01,15.0883072,0.0001815,53.2162,298.8081,47.5014,303.3229,0.0015710999999999,0.00024798,0.0,0 STARLINK-3628,1 51783U 22017R   22255.58334491  .00024798  00000-0  15711-2 0  9996,2 51783  53.2162 298.8081 0001815  47.5014 303.3229 15.08830720  1307,6917.909000000002,95.438,541.029,538.518,0.0
51783.0,STARLINK-3628,PAYLOAD,2022-09-12 22:00:00,15.08818843,0.0001635,53.2164,297.3098,51.3694,311.0637,0.0013955,0.00021978,0.0,0 STARLINK-3628,1 51783U 22017R   22255.91667824  .00021978  00000-0  13955-2 0  9997,2 51783  53.2164 297.3098 0001635  51.3694 311.0637 15.08818843  1309,6917.945,95.439,540.941,538.679,0.0
51783.0,STARLINK-3628,PAYLOAD,2022-09-13 08:00:01,15.08850822,0.0001783,53.2163,295.4402,49.3826,57.5279,-0.0010194,-0.0001648,0.0,0 STARLINK-3628,1 51783U 22017R   22256.33334491 -.00016480  00000-0 -10194-2 0  9991,2 51783  53.2163 295.4402 0001783  49.3826  57.5279 15.08850822 31821,6917.847,95.437,540.946,538.479,0.0
